STARLINK-6119           
1 56125U 23046AK  25321.90794756  .00000450  00000+0  48394-4 0  9994
2 56125  43.0072  33.6568 0001500 262.2864  97.7808 15.02535017145394
STARLINK-6124           
1 56126U 23046AL  25321.63537344 -.00000623  00000+0 -31033-4 0  9999
2 56126  43.0073  35.0498 0001299 282.4180  77.6517 15.02546143145356
STARLINK-6104           
1 56127U 23046AM  25321.89351935 -.00000498  00000+0 -21760-4 0  9994
2 56127  43.0036  33.5485 0001191 270.4704  89.6002 15.02534320145395
STARLINK-6122           
1 56128U 23046AN  25321.91017054 -.00000819  00000+0 -45594-4 0  9997
2 56128  43.0042  33.6716 0000811 273.5855  86.4895 15.02533018145398
STARLINK-6121           
1 56129U 23046AP  25321.76493633  .00000440  00000+0  47678-4 0  9995
2 56129  43.0063 342.4112 0001278 271.7653  88.3043 15.02536149145975
STARLINK-6117           
1 56130U 23046AQ  25321.89795588 -.00000070  00000+0  98896-5 0  9994
2 56130  43.0040  33.5848 0001122 268.0054  92.0660 15.02535332145394
STARLINK-6120           
1 56131U 23046AR  25321.61761929 -.00001420  00000+0 -90015-4 0  9992
2 56131  43.0057  34.9148 0001339 267.2104  92.8585 15.02546825145357
STARLINK-6071           
1 56132U 23046AS  25321.89462808 -.00001327  00000+0 -83179-4 0  9996
2 56132  43.0055  33.5567 0001173 270.3274  89.7434 15.02545976145393
STARLINK-5566           
1 56133U 23046AT  25321.60762918 -.00000382  00000+0 -13232-4 0  9994
2 56133  43.0039  34.8398 0001335 256.2799 103.7895 15.02542084145358
STARLINK-5564           
1 56134U 23046AU  25321.89131922 -.00000535  00000+0 -24532-4 0  9996
2 56134  43.0051  33.5330 0000869 282.4076  77.6669 15.02538472145393
STARLINK-5489           
1 56136U 23046AW  25321.55446732 -.00000432  00000+0 -16925-4 0  9992
2 56136  43.0041  35.3059 0001137 265.0364  95.0348 15.02545073145346
STARLINK-5090           
1 56137U 23046AX  25321.59874979  .00001289  00000+0  11050-3 0  9997
2 56137  43.0054  34.7725 0000897 272.0554  88.0186 15.02527390145350
STARLINK-4774           
1 56138U 23046AY  25321.61428426 -.00002423  00000+0 -16433-3 0  9996
2 56138  43.0031  34.8924 0001754 258.2831 101.7815 15.02544130145358
STARLINK-5375           
1 56140U 23046BA  25321.61206919  .00000845  00000+0  77574-4 0  9998
2 56140  43.0052  34.8755 0001097 248.1019 111.9707 15.02540455145351
STARLINK-5377           
1 56141U 23046BB  25321.59763410  .00000157  00000+0  26700-4 0  9991
2 56141  43.0056  34.7631 0001143 276.1775  83.8937 15.02546256145357
STARLINK-5376           
1 56142U 23046BC  25322.07407627 -.00006057  00000+0 -43344-3 0  9990
2 56142  43.0044  32.3181 0000953 274.2366  85.8367 15.02559908145427
