[{"OBJECT_NAME":"STARLINK-6119","OBJECT_ID":"2023-046AK","EPOCH":"2025-11-17T21:47:26.669184","MEAN_MOTION":15.02535017,"ECCENTRICITY":0.00015,"INCLINATION":43.0072,"RA_OF_ASC_NODE":33.6568,"ARG_OF_PERICENTER":262.2864,"MEAN_ANOMALY":97.7808,"EPHEMERIS_TYPE":0,"CLASSIFICATION_TYPE":"U","NORAD_CAT_ID":56125,"ELEMENT_SET_NO":999,"REV_AT_EPOCH":14539,"BSTAR":4.8394e-5,"MEAN_MOTION_DOT":4.5e-6,"MEAN_MOTION_DDOT":0},{"OBJECT_NAME":"STARLINK-6124","OBJECT_ID":"2023-046AL","EPOCH":"2025-11-17T15:14:56.265216","MEAN_MOTION":15.02546143,"ECCENTRICITY":0.0001299,"INCLINATION":43.0073,"RA_OF_ASC_NODE":35.0498,"ARG_OF_PERICENTER":282.418,"MEAN_ANOMALY":77.6517,"EPHEMERIS_TYPE":0,"CLASSIFICATION_TYPE":"U","NORAD_CAT_ID":56126,"ELEMENT_SET_NO":999,"REV_AT_EPOCH":14535,"BSTAR":-3.1033e-5,"MEAN_MOTION_DOT":-6.23e-6,"MEAN_MOTION_DDOT":0},{"OBJECT_NAME":"STARLINK-6104","OBJECT_ID":"2023-046AM","EPOCH":"2025-11-17T21:26:40.071840","MEAN_MOTION":15.0253432,"ECCENTRICITY":0.0001191,"INCLINATION":43.0036,"RA_OF_ASC_NODE":33.5485,"ARG_OF_PERICENTER":270.4704,"MEAN_ANOMALY":89.6002,"EPHEMERIS_TYPE":0,"CLASSIFICATION_TYPE":"U","NORAD_CAT_ID":56127,"ELEMENT_SET_NO":999,"REV_AT_EPOCH":14539,"BSTAR":-2.176e-5,"MEAN_MOTION_DOT":-4.98e-6,"MEAN_MOTION_DDOT":0},{"OBJECT_NAME":"STARLINK-6122","OBJECT_ID":"2023-046AN","EPOCH":"2025-11-17T21:50:38.734656","MEAN_MOTION":15.02533018,"ECCENTRICITY":8.11e-5,"INCLINATION":43.0042,"RA_OF_ASC_NODE":33.6716,"ARG_OF_PERICENTER":273.5855,"MEAN_ANOMALY":86.4895,"EPHEMERIS_TYPE":0,"CLASSIFICATION_TYPE":"U","NORAD_CAT_ID":56128,"ELEMENT_SET_NO":999,"REV_AT_EPOCH":14539,"BSTAR":-4.5594e-5,"MEAN_MOTION_DOT":-8.19e-6,"MEAN_MOTION_DDOT":0},{"OBJECT_NAME":"STARLINK-6121","OBJECT_ID":"2023-046AP","EPOCH":"2025-11-17T18:21:30.498912","MEAN_MOTION":15.02536149,"ECCENTRICITY":0.0001278,"INCLINATION":43.0063,"RA_OF_ASC_NODE":342.4112,"ARG_OF_PERICENTER":271.7653,"MEAN_ANOMALY":88.3043,"EPHEMERIS_TYPE":0,"CLASSIFICATION_TYPE":"U","NORAD_CAT_ID":56129,"ELEMENT_SET_NO":999,"REV_AT_EPOCH":14597,"BSTAR":4.7678e-5,"MEAN_MOTION_DOT":4.4e-6,"MEAN_MOTION_DDOT":0},{"OBJECT_NAME":"STARLINK-6117","OBJECT_ID":"2023-046AQ","EPOCH":"2025-11-17T21:33:03.388032","MEAN_MOTION":15.02535332,"ECCENTRICITY":0.0001122,"INCLINATION":43.004,"RA_OF_ASC_NODE":33.5848,"ARG_OF_PERICENTER":268.0054,"MEAN_ANOMALY":92.066,"EPHEMERIS_TYPE":0,"CLASSIFICATION_TYPE":"U","NORAD_CAT_ID":56130,"ELEMENT_SET_NO":999,"REV_AT_EPOCH":14539,"BSTAR":9.8896e-6,"MEAN_MOTION_DOT":-7.0e-7,"MEAN_MOTION_DDOT":0},{"OBJECT_NAME":"STARLINK-6120","OBJECT_ID":"2023-046AR","EPOCH":"2025-11-17T14:49:22.306656","MEAN_MOTION":15.02546825,"ECCENTRICITY":0.00013399,"INCLINATION":43.0057,"RA_OF_ASC_NODE":34.9148,"ARG_OF_PERICENTER":267.2104,"MEAN_ANOMALY":92.8585,"EPHEMERIS_TYPE":0,"CLASSIFICATION_TYPE":"U","NORAD_CAT_ID":56131,"ELEMENT_SET_NO":999,"REV_AT_EPOCH":14535,"BSTAR":-9.0015193e-5,"MEAN_MOTION_DOT":-1.42e-5,"MEAN_MOTION_DDOT":0},{"OBJECT_NAME":"STARLINK-6071","OBJECT_ID":"2023-046AS","EPOCH":"2025-11-17T21:28:15.866112","MEAN_MOTION":15.02545976,"ECCENTRICITY":0.0001173,"INCLINATION":43.0055,"RA_OF_ASC_NODE":33.5567,"ARG_OF_PERICENTER":270.3274,"MEAN_ANOMALY":89.7434,"EPHEMERIS_TYPE":0,"CLASSIFICATION_TYPE":"U","NORAD_CAT_ID":56132,"ELEMENT_SET_NO":999,"REV_AT_EPOCH":14539,"BSTAR":-8.3179e-5,"MEAN_MOTION_DOT":-1.327e-5,"MEAN_MOTION_DDOT":0},{"OBJECT_NAME":"STARLINK-5566","OBJECT_ID":"2023-046AT","EPOCH":"2025-11-17T14:34:59.161152","MEAN_MOTION":15.02542084,"ECCENTRICITY":0.00013354,"INCLINATION":43.0039,"RA_OF_ASC_NODE":34.8398,"ARG_OF_PERICENTER":256.2799,"MEAN_ANOMALY":103.7895,"EPHEMERIS_TYPE":0,"CLASSIFICATION_TYPE":"U","NORAD_CAT_ID":56133,"ELEMENT_SET_NO":999,"REV_AT_EPOCH":14535,"BSTAR":-1.3232405e-5,"MEAN_MOTION_DOT":-3.82e-6,"MEAN_MOTION_DDOT":0},{"OBJECT_NAME":"STARLINK-5564","OBJECT_ID":"2023-046AU","EPOCH":"2025-11-17T21:23:29.980608","MEAN_MOTION":15.02538472,"ECCENTRICITY":8.69e-5,"INCLINATION":43.0051,"RA_OF_ASC_NODE":33.533,"ARG_OF_PERICENTER":282.4076,"MEAN_ANOMALY":77.6669,"EPHEMERIS_TYPE":0,"CLASSIFICATION_TYPE":"U","NORAD_CAT_ID":56134,"ELEMENT_SET_NO":999,"REV_AT_EPOCH":14539,"BSTAR":-2.4532e-5,"MEAN_MOTION_DOT":-5.35e-6,"MEAN_MOTION_DDOT":0},{"OBJECT_NAME":"STARLINK-5489","OBJECT_ID":"2023-046AW","EPOCH":"2025-11-17T13:18:25.976448","MEAN_MOTION":15.02545073,"ECCENTRICITY":0.00011379,"INCLINATION":43.0041,"RA_OF_ASC_NODE":35.3059,"ARG_OF_PERICENTER":265.0364,"MEAN_ANOMALY":95.0348,"EPHEMERIS_TYPE":0,"CLASSIFICATION_TYPE":"U","NORAD_CAT_ID":56136,"ELEMENT_SET_NO":999,"REV_AT_EPOCH":14534,"BSTAR":-1.6925407e-5,"MEAN_MOTION_DOT":-4.32e-6,"MEAN_MOTION_DDOT":0},{"OBJECT_NAME":"STARLINK-5090","OBJECT_ID":"2023-046AX","EPOCH":"2025-11-17T14:22:11.981856","MEAN_MOTION":15.0252739,"ECCENTRICITY":8.976e-5,"INCLINATION":43.0054,"RA_OF_ASC_NODE":34.7725,"ARG_OF_PERICENTER":272.0554,"MEAN_ANOMALY":88.0186,"EPHEMERIS_TYPE":0,"CLASSIFICATION_TYPE":"U","NORAD_CAT_ID":56137,"ELEMENT_SET_NO":999,"REV_AT_EPOCH":14535,"BSTAR":0.00011049948,"MEAN_MOTION_DOT":1.289e-5,"MEAN_MOTION_DDOT":0},{"OBJECT_NAME":"STARLINK-4774","OBJECT_ID":"2023-046AY","EPOCH":"2025-11-17T14:44:34.160064","MEAN_MOTION":15.0254413,"ECCENTRICITY":0.00017545,"INCLINATION":43.0031,"RA_OF_ASC_NODE":34.8924,"ARG_OF_PERICENTER":258.2831,"MEAN_ANOMALY":101.7815,"EPHEMERIS_TYPE":0,"CLASSIFICATION_TYPE":"U","NORAD_CAT_ID":56138,"ELEMENT_SET_NO":999,"REV_AT_EPOCH":14535,"BSTAR":-0.00016433249,"MEAN_MOTION_DOT":-2.423e-5,"MEAN_MOTION_DDOT":0},{"OBJECT_NAME":"STARLINK-5375","OBJECT_ID":"2023-046BA","EPOCH":"2025-11-17T14:41:22.778016","MEAN_MOTION":15.02540455,"ECCENTRICITY":0.00010979,"INCLINATION":43.0052,"RA_OF_ASC_NODE":34.8755,"ARG_OF_PERICENTER":248.1019,"MEAN_ANOMALY":111.9707,"EPHEMERIS_TYPE":0,"CLASSIFICATION_TYPE":"U","NORAD_CAT_ID":56140,"ELEMENT_SET_NO":999,"REV_AT_EPOCH":14535,"BSTAR":7.7574194e-5,"MEAN_MOTION_DOT":8.45e-6,"MEAN_MOTION_DDOT":0},{"OBJECT_NAME":"STARLINK-5377","OBJECT_ID":"2023-046BB","EPOCH":"2025-11-17T14:20:35.586240","MEAN_MOTION":15.02546256,"ECCENTRICITY":0.00011435,"INCLINATION":43.0056,"RA_OF_ASC_NODE":34.7631,"ARG_OF_PERICENTER":276.1775,"MEAN_ANOMALY":83.8937,"EPHEMERIS_TYPE":0,"CLASSIFICATION_TYPE":"U","NORAD_CAT_ID":56141,"ELEMENT_SET_NO":999,"REV_AT_EPOCH":14535,"BSTAR":2.6700446e-5,"MEAN_MOTION_DOT":1.57e-6,"MEAN_MOTION_DDOT":0},{"OBJECT_NAME":"STARLINK-5376","OBJECT_ID":"2023-046BC","EPOCH":"2025-11-18T01:46:40.189728","MEAN_MOTION":15.02559908,"ECCENTRICITY":9.53e-5,"INCLINATION":43.0044,"RA_OF_ASC_NODE":32.3181,"ARG_OF_PERICENTER":274.2366,"MEAN_ANOMALY":85.8367,"EPHEMERIS_TYPE":0,"CLASSIFICATION_TYPE":"U","NORAD_CAT_ID":56142,"ELEMENT_SET_NO":999,"REV_AT_EPOCH":14542,"BSTAR":-0.00043344,"MEAN_MOTION_DOT":-6.057e-5,"MEAN_MOTION_DDOT":0}]
